{"type": "FeatureCollection", "features": [ {"type": "Feature", "properties": {"norad_id": 65304, "name": "DRAGON CRS-33", "group": "stations", "lat": -45.79589583738304, "lon": 96.63618804627905, "alt_km": 421.5608198195332, "timestamp": "2025-12-10T23:33:11.640555+00:00", "meta": {"OBJECT_NAME": "DRAGON CRS-33", "OBJECT_ID": "2025-186A", "EPOCH": "2025-12-10T13:00:09.919872", "MEAN_MOTION": 15.49478601, "ECCENTRICITY": 0.00033601, "INCLINATION": 51.6308, "RA_OF_ASC_NODE": 153.362, "ARG_OF_PERICENTER": 230.7092, "MEAN_ANOMALY": 129.3599, "EPHEMERIS_TYPE": 0, "CLASSIFICATION_TYPE": "U", "NORAD_CAT_ID": 65304, "ELEMENT_SET_NO": 999, "REV_AT_EPOCH": 11, "BSTAR": 0.0002844348, "MEAN_MOTION_DOT": 0.00015517, "MEAN_MOTION_DDOT": 0}, "tle": {"line1": "1 65304U 25186A   25344.54178148  .00015517  00000+0  28443-3 0  9998", "line2": "2 65304  51.6308 153.3620 0003360 230.7092 129.3599 15.49478601   113"}}, "geometry": {"type": "Point", "coordinates": [96.63618804627905, -45.79589583738304]}}, {"type": "Feature", "properties": {"norad_id": 65586, "name": "PROGRESS-MS 32", "group": "stations", "lat": -45.79589557340256, "lon": 96.63618878754339, "alt_km": 421.5608198307391, "timestamp": "2025-12-10T23:33:11.640564+00:00", "meta": {"OBJECT_NAME": "PROGRESS-MS 32", "OBJECT_ID": "2025-204A", "EPOCH": "2025-12-10T13:00:09.919872", "MEAN_MOTION": 15.49478601, "ECCENTRICITY": 0.00033601, "INCLINATION": 51.6308, "RA_OF_ASC_NODE": 153.362, "ARG_OF_PERICENTER": 230.7092, "MEAN_ANOMALY": 129.3599, "EPHEMERIS_TYPE": 0, "CLASSIFICATION_TYPE": "U", "NORAD_CAT_ID": 65586, "ELEMENT_SET_NO": 999, "REV_AT_EPOCH": 27, "BSTAR": 0.0002844348, "MEAN_MOTION_DOT": 0.00015517, "MEAN_MOTION_DDOT": 0}, "tle": {"line1": "1 65586U 25204A   25344.54178148  .00015517  00000+0  28443-3 0  9991", "line2": "2 65586  51.6308 153.3620 0003360 230.7092 129.3599 15.49478601   272"}}, "geometry": {"type": "Point", "coordinates": [96.63618878754339, -45.79589557340256]}}, {"type": "Feature", "properties": {"norad_id": 65616, "name": "CYGNUS NG-23", "group": "stations", "lat": -45.79589530942279, "lon": 96.63618952880566, "alt_km": 421.5608198419468, "timestamp": "2025-12-10T23:33:11.640573+00:00", "meta": {"OBJECT_NAME": "CYGNUS NG-23", "OBJECT_ID": "2025-208A", "EPOCH": "2025-12-10T13:00:09.919872", "MEAN_MOTION": 15.49478601, "ECCENTRICITY": 0.00033601, "INCLINATION": 51.6308, "RA_OF_ASC_NODE": 153.362, "ARG_OF_PERICENTER": 230.7092, "MEAN_ANOMALY": 129.3599, "EPHEMERIS_TYPE": 0, "CLASSIFICATION_TYPE": "U", "NORAD_CAT_ID": 65616, "ELEMENT_SET_NO": 999, "REV_AT_EPOCH": 22, "BSTAR": 0.0002844348, "MEAN_MOTION_DOT": 0.00015517, "MEAN_MOTION_DDOT": 0}, "tle": {"line1": "1 65616U 25208A   25344.54178148  .00015517  00000+0  28443-3 0  9999", "line2": "2 65616  51.6308 153.3620 0003360 230.7092 129.3599 15.49478601   221"}}, "geometry": {"type": "Point", "coordinates": [96.63618952880566, -45.79589530942279]}}, {"type": "Feature", "properties": {"norad_id": 65729, "name": "DRAGONFLY", "group": "stations", "lat": 35.32418116687533, "lon": -69.403581058768, "alt_km": 354.00347826643974, "timestamp": "2025-12-10T23:33:11.640582+00:00", "meta": {"OBJECT_NAME": "DRAGONFLY", "OBJECT_ID": "1998-067XH", "EPOCH": "2025-12-10T10:46:42.048192", "MEAN_MOTION": 15.70885293, "ECCENTRICITY": 0.00065676, "INCLINATION": 51.625, "RA_OF_ASC_NODE": 147.4857, "ARG_OF_PERICENTER": 262.4747, "MEAN_ANOMALY": 97.5505, "EPHEMERIS_TYPE": 0, "CLASSIFICATION_TYPE": "U", "NORAD_CAT_ID": 65729, "ELEMENT_SET_NO": 999, "REV_AT_EPOCH": 1280, "BSTAR": 0.0016626821, "MEAN_MOTION_DOT": 0.00217091, "MEAN_MOTION_DDOT": 0}, "tle": {"line1": "1 65729U 98067XH  25344.44909778  .00217091  00000+0  16627-2 0  9998", "line2": "2 65729  51.6250 147.4857 0006567 262.4747  97.5505 15.70885293 12802"}}, "geometry": {"type": "Point", "coordinates": [-69.403581058768, 35.32418116687533]}}, {"type": "Feature", "properties": {"norad_id": 65731, "name": "1998-067XK", "group": "stations", "lat": -11.508187421627042, "lon": -24.56608204101754, "alt_km": 371.90935784617704, "timestamp": "2025-12-10T23:33:11.640592+00:00", "meta": {"OBJECT_NAME": "1998-067XK", "OBJECT_ID": "1998-067XK", "EPOCH": "2025-12-10T11:59:54.530016", "MEAN_MOTION": 15.65134348, "ECCENTRICITY": 0.00051808, "INCLINATION": 51.6281, "RA_OF_ASC_NODE": 148.5918, "ARG_OF_PERICENTER": 231.8122, "MEAN_ANOMALY": 128.2407, "EPHEMERIS_TYPE": 0, "CLASSIFICATION_TYPE": "U", "NORAD_CAT_ID": 65731, "ELEMENT_SET_NO": 999, "REV_AT_EPOCH": 1279, "BSTAR": 0.0012258975, "MEAN_MOTION_DOT": 0.00124892, "MEAN_MOTION_DDOT": 0}, "tle": {"line1": "1 65731U 98067XK  25344.49993669  .00124892  00000+0  12259-2 0  9991", "line2": "2 65731  51.6281 148.5918 0005180 231.8122 128.2407 15.65134348 12799"}}, "geometry": {"type": "Point", "coordinates": [-24.56608204101754, -11.508187421627042]}}, {"type": "Feature", "properties": {"norad_id": 65732, "name": "RSP-03", "group": "stations", "lat": 23.581189608923324, "lon": -54.75025499595769, "alt_km": 361.81414322216915, "timestamp": "2025-12-10T23:33:11.640601+00:00", "meta": {"OBJECT_NAME": "RSP-03", "OBJECT_ID": "1998-067XL", "EPOCH": "2025-12-10T12:12:40.904064", "MEAN_MOTION": 15.678372, "ECCENTRICITY": 0.00058956, "INCLINATION": 51.6265, "RA_OF_ASC_NODE": 147.8923, "ARG_OF_PERICENTER": 236.0858, "MEAN_ANOMALY": 123.9578, "EPHEMERIS_TYPE": 0, "CLASSIFICATION_TYPE": "U", "NORAD_CAT_ID": 65732, "ELEMENT_SET_NO": 999, "REV_AT_EPOCH": 1281, "BSTAR": 0.001395491, "MEAN_MOTION_DOT": 0.00159362, "MEAN_MOTION_DDOT": 0}, "tle": {"line1": "1 65732U 98067XL  25344.50880676  .00159362  00000+0  13955-2 0  9991", "line2": "2 65732  51.6265 147.8923 0005895 236.0858 123.9578 15.67837200 12819"}}, "geometry": {"type": "Point", "coordinates": [-54.75025499595769, 23.581189608923324]}}, {"type": "Feature", "properties": {"norad_id": 65733, "name": "GHS-01", "group": "stations", "lat": 21.868613273458752, "lon": 162.7777338119228, "alt_km": 348.3044450299785, "timestamp": "2025-12-10T23:33:11.640611+00:00", "meta": {"OBJECT_NAME": "GHS-01", "OBJECT_ID": "1998-067XM", "EPOCH": "2025-12-09T18:28:18.827904", "MEAN_MOTION": 15.73188946, "ECCENTRICITY": 0.00069378, "INCLINATION": 51.6282, "RA_OF_ASC_NODE": 150.4557, "ARG_OF_PERICENTER": 260.0742, "MEAN_ANOMALY": 99.9474, "EPHEMERIS_TYPE": 0, "CLASSIFICATION_TYPE": "U", "NORAD_CAT_ID": 65733, "ELEMENT_SET_NO": 999, "REV_AT_EPOCH": 1271, "BSTAR": 0.0015641531, "MEAN_MOTION_DOT": 0.00225395, "MEAN_MOTION_DDOT": 0}, "tle": {"line1": "1 65733U 98067XM  25343.76966236  .00225395  00000+0  15642-2 0  9991", "line2": "2 65733  51.6282 150.4557 0006937 260.0742  99.9474 15.73188946 12718"}}, "geometry": {"type": "Point", "coordinates": [162.7777338119228, 21.868613273458752]}}, {"type": "Feature", "properties": {"norad_id": 65941, "name": "YOTSUBA-KULOVER", "group": "stations", "lat": -3.8742044646870735, "lon": 145.73724084430316, "alt_km": 391.9866399984039, "timestamp": "2025-12-10T23:33:11.640620+00:00", "meta": {"OBJECT_NAME": "YOTSUBA-KULOVER", "OBJECT_ID": "1998-067XN", "EPOCH": "2025-12-10T11:16:03.070272", "MEAN_MOTION": 15.59021065, "ECCENTRICITY": 0.00015507, "INCLINATION": 51.6286, "RA_OF_ASC_NODE": 151.3857, "ARG_OF_PERICENTER": 232.2961, "MEAN_ANOMALY": 127.7891, "EPHEMERIS_TYPE": 0, "CLASSIFICATION_TYPE": "U", "NORAD_CAT_ID": 65941, "ELEMENT_SET_NO": 999, "REV_AT_EPOCH": 950, "BSTAR": 0.0011321165, "MEAN_MOTION_DOT": 0.00090413, "MEAN_MOTION_DDOT": 0}, "tle": {"line1": "1 65941U 98067XN  25344.46947998  .00090413  00000+0  11321-2 0  9995", "line2": "2 65941  51.6286 151.3857 0001550 232.2961 127.7891 15.59021065  9504"}}, "geometry": {"type": "Point", "coordinates": [145.73724084430316, -3.8742044646870735]}}, {"type": "Feature", "properties": {"norad_id": 65942, "name": "BOTAN", "group": "stations", "lat": -41.36494735652849, "lon": 103.93006491613572, "alt_km": 384.7401921382225, "timestamp": "2025-12-10T23:33:11.640630+00:00", "meta": {"OBJECT_NAME": "BOTAN", "OBJECT_ID": "1998-067XP", "EPOCH": "2025-12-10T11:31:01.401312", "MEAN_MOTION": 15.62212709, "ECCENTRICITY": 0.00033822, "INCLINATION": 51.6281, "RA_OF_ASC_NODE": 150.7055, "ARG_OF_PERICENTER": 220.3642, "MEAN_ANOMALY": 139.7102, "EPHEMERIS_TYPE": 0, "CLASSIFICATION_TYPE": "U", "NORAD_CAT_ID": 65942, "ELEMENT_SET_NO": 999, "REV_AT_EPOCH": 951, "BSTAR": 0.0015087728, "MEAN_MOTION_DOT": 0.00137252, "MEAN_MOTION_DDOT": 0}, "tle": {"line1": "1 65942U 98067XP  25344.47987733  .00137252  00000+0  15088-2 0  9995", "line2": "2 65942  51.6281 150.7055 0003382 220.3642 139.7102 15.62212709  9512"}}, "geometry": {"type": "Point", "coordinates": [103.93006491613572, -41.36494735652849]}}, {"type": "Feature", "properties": {"norad_id": 65943, "name": "E-KAGAKU-1", "group": "stations", "lat": -3.824161548125422, "lon": 145.7710022225715, "alt_km": 394.7042734300485, "timestamp": "2025-12-10T23:33:11.640640+00:00", "meta": {"OBJECT_NAME": "E-KAGAKU-1", "OBJECT_ID": "1998-067XQ", "EPOCH": "2025-12-10T06:39:08.237952", "MEAN_MOTION": 15.5900432, "ECCENTRICITY": 0.00052507, "INCLINATION": 51.6298, "RA_OF_ASC_NODE": 152.3458, "ARG_OF_PERICENTER": 191.2269, "MEAN_ANOMALY": 168.8608, "EPHEMERIS_TYPE": 0, "CLASSIFICATION_TYPE": "U", "NORAD_CAT_ID": 65943, "ELEMENT_SET_NO": 999, "REV_AT_EPOCH": 947, "BSTAR": 0.0012588803, "MEAN_MOTION_DOT": 0.00100705, "MEAN_MOTION_DDOT": 0}, "tle": {"line1": "1 65943U 98067XQ  25344.27717868  .00100705  00000+0  12589-2 0  9990", "line2": "2 65943  51.6298 152.3458 0005250 191.2269 168.8608 15.59004320  9476"}}, "geometry": {"type": "Point", "coordinates": [145.7710022225715, -3.824161548125422]}}]}